NORAD_CAT_ID,OBJECT_NAME,OBJECT_TYPE,EPOCH,MEAN_MOTION,ECCENTRICITY,INCLINATION,RA_OF_ASC_NODE,ARG_OF_PERICENTER,MEAN_ANOMALY,BSTAR,MEAN_MOTION_DOT,MEAN_MOTION_DDOT,TLE_LINE0,TLE_LINE1,TLE_LINE2,SEMIMAJOR_AXIS,PERIOD,APOGEE,PERIGEE,DECAYED
53589.0,STARLINK-4673,PAYLOAD,2023-02-10 20:25:42,15.08833279,0.0001342,53.2169,244.788,81.4135,278.7009,0.00061579,9.524e-05,0.0,0 STARLINK-4673,1 53589U 22104B   23041.85118077  .00009524  00000-0  61579-3 0  9997,2 53589  53.2169 244.7880 0001342  81.4135 278.7009 15.08833279 25414,6917.901,95.438,540.694,538.838,0.0
53589.0,STARLINK-4673,PAYLOAD,2023-02-11 05:58:00,15.0883772,0.000117,53.2158,243.0038,80.0087,280.1037,0.00042964,6.556e-05,0.0,0 STARLINK-4673,1 53589U 22104B   23042.24862125  .00006556  00000-0  42964-3 0  9990,2 53589  53.2158 243.0038 0001170  80.0087 280.1037 15.08837720 26491,6917.887,95.438,540.562,538.943,0.0
53589.0,STARLINK-4673,PAYLOAD,2023-02-11 20:16:29,15.08849057,0.0001323,53.216,240.3286,84.0838,276.0305,0.00010617,1.403e-05,0.0,0 STARLINK-4673,1 53589U 22104B   23042.84478067  .00001403  00000-0  10617-3 0  9990,2 53589  53.2160 240.3286 0001323  84.0838 276.0305 15.08849057 26585,6917.853,95.437,540.633,538.802,0.0
53589.0,STARLINK-4673,PAYLOAD,2023-02-12 05:48:48,15.08836486,0.0001416,53.2168,238.5433,77.9675,282.1476,0.00014936,2.09e-05,0.0,0 STARLINK-4673,1 53589U 22104B   23043.24222323  .00002090  00000-0  14936-3 0  9998,2 53589  53.2168 238.5433 0001416  77.9675 282.1476 15.08836486 25622,6917.891,95.438,540.736,538.777,0.0
53589.0,STARLINK-4673,PAYLOAD,2023-02-13 05:39:34,15.08843027,7.37e-05,53.2158,234.0841,93.4199,266.6877,0.00018647,2.681e-05,0.0,0 STARLINK-4673,1 53589U 22104B   23044.23581937  .00002681  00000-0  18647-3 0  9996,2 53589  53.2158 234.0841 0000737  93.4199 266.6877 15.08843027 26794,6917.871,95.437,540.246,539.226,0.0
53589.0,STARLINK-4673,PAYLOAD,2023-02-13 23:08:49,15.08848904,0.0001092,53.2158,230.8129,86.3356,273.7761,0.00028331,4.225e-05,0.0,0 STARLINK-4673,1 53589U 22104B   23044.96445892  .00004225  00000-0  28331-3 0  9992,2 53589  53.2158 230.8129 0001092  86.3356 273.7761 15.08848904 25887,6917.853,95.437,540.474,538.963,0.0
53589.0,STARLINK-4673,PAYLOAD,2023-02-14 05:30:22,15.08839609,0.0001102,53.2158,229.6233,85.3701,274.7417,7.2635e-05,8.68e-06,0.0,0 STARLINK-4673,1 53589U 22104B   23045.22942150  .00000868  00000-0  72635-4 0  9997,2 53589  53.2158 229.6233 0001102  85.3701 274.7417 15.08839609 25920,6917.882,95.438,540.509,538.984,0.0
53589.0,STARLINK-4673,PAYLOAD,2023-02-14 18:13:27,15.08843723,0.0001055,53.2165,227.2439,83.6645,276.4468,0.00015666,2.207e-05,0.0,0 STARLINK-4673,1 53589U 22104B   23045.75934063  .00002207  00000-0  15666-3 0  9998,2 53589  53.2165 227.2439 0001055  83.6645 276.4468 15.08843723 27025,6917.869,95.437,540.464,539.004,0.0
53589.0,STARLINK-4673,PAYLOAD,2023-02-15 05:21:09,15.0884072,0.0001383,53.2138,225.1653,78.2789,281.8358,7.3984e-05,8.9e-06,0.0,0 STARLINK-4673,1 53589U 22104B   23046.22302302  .00000890  00000-0  73984-4 0  9990,2 53589  53.2138 225.1653 0001383  78.2789 281.8358 15.08840720 27092,6917.878,95.438,540.7,538.786,0.0
53589.0,STARLINK-4673,PAYLOAD,2023-02-15 21:14:59,15.08856313,0.0001167,53.2159,222.1894,90.3591,269.7534,0.00021778,3.181e-05,0.0,0 STARLINK-4673,1 53589U 22104B   23046.88541494  .00003181  00000-0  21778-3 0  9998,2 53589  53.2159 222.1894 0001167  90.3591 269.7534 15.08856313 26179,6917.831,95.437,540.503,538.888,0.0
53589.0,STARLINK-4673,PAYLOAD,2023-02-16 05:11:56,15.08841787,0.0001487,53.2141,220.7043,79.8563,280.2596,0.00012563,1.712e-05,0.0,0 STARLINK-4673,1 53589U 22104B   23047.21662186  .00001712  00000-0  12563-3 0  9998,2 53589  53.2141 220.7043 0001487  79.8563 280.2596 15.08841787 26227,6917.875,95.437,540.769,538.711,0.0
53589.0,STARLINK-4673,PAYLOAD,2023-02-16 11:33:28,15.08842265,0.0001422,53.2134,219.5151,80.1478,279.9674,0.0001225,1.662e-05,0.0,0 STARLINK-4673,1 53589U 22104B   23047.48158153  .00001662  00000-0  12250-3 0  9998,2 53589  53.2134 219.5151 0001422  80.1478 279.9674 15.08842265 27285,6917.873,95.437,540.722,538.755,0.0
53589.0,STARLINK-4673,PAYLOAD,2023-02-16 21:05:46,15.08852194,0.0001231,53.2162,217.7305,86.8909,273.2224,0.00033122,4.989e-05,0.0,0 STARLINK-4673,1 53589U 22104B   23047.87901601  .00004989  00000-0  33122-3 0  9991,2 53589  53.2162 217.7305 0001231  86.8909 273.2224 15.08852194 27344,6917.843,95.437,540.56,538.857,0.0
53589.0,STARLINK-4673,PAYLOAD,2023-02-16 22:41:10,15.08854649,0.0001219,53.2165,217.4336,86.2786,273.8345,0.00035298,5.336e-05,0.0,0 STARLINK-4673,1 53589U 22104B   23047.94525507  .00005336  00000-0  35298-3 0  9999,2 53589  53.2165 217.4336 0001219  86.2786 273.8345 15.08854649 26336,6917.836,95.437,540.544,538.857,0.0
53589.0,STARLINK-4673,PAYLOAD,2023-02-17 12:59:39,15.08832722,8.35e-05,53.2162,214.7564,100.9261,259.1825,-4.1884e-05,-9.54e-06,0.0,0 STARLINK-4673,1 53589U 22104B   23048.54142383 -.00000954  00000-0 -41884-4 0  9995,2 53589  53.2162 214.7564 0000835 100.9261 259.1825 15.08832722 26429,6917.903,95.438,540.345,539.19,0.0
53589.0,STARLINK-4673,PAYLOAD,2023-02-17 20:56:34,15.08840934,9.32e-05,53.2156,213.2694,98.9594,261.1504,0.00052549,8.085e-05,0.0,0 STARLINK-4673,1 53589U 22104B   23048.87262424  .00008085  00000-0  52549-3 0  9990,2 53589  53.2156 213.2694 0000932  98.9594 261.1504 15.08840934 27492,6917.878,95.437,540.387,539.098,0.0
53589.0,STARLINK-4673,PAYLOAD,2023-02-18 11:15:03,15.08835248,0.0001072,53.2143,210.5935,102.4764,257.6348,0.00038783,5.889e-05,0.0,0 STARLINK-4673,1 53589U 22104B   23049.46878893  .00005889  00000-0  38783-3 0  9992,2 53589  53.2143 210.5935 0001072 102.4764 257.6348 15.08835248 27580,6917.895,95.438,540.502,539.018,0.0
53589.0,STARLINK-4673,PAYLOAD,2023-02-18 19:11:59,15.08842894,0.0001032,53.2164,209.1076,102.7001,257.4107,0.00054311,8.367e-05,0.0,0 STARLINK-4673,1 53589U 22104B   23049.79998870  .00008367  00000-0  54311-3 0  9995,2 53589  53.2164 209.1076 0001032 102.7001 257.4107 15.08842894 26615,6917.872,95.437,540.45,539.023,0.0
53589.0,STARLINK-4673,PAYLOAD,2023-02-19 11:05:50,15.08843314,8.85e-05,53.2152,206.1325,99.8976,260.2116,0.00026616,3.951e-05,0.0,0 STARLINK-4673,1 53589U 22104B   23050.46238788  .00003951  00000-0  26616-3 0  9997,2 53589  53.2152 206.1325 0000885  99.8976 260.2116 15.08843314 26719,6917.87,95.437,540.347,539.123,0.0
53589.0,STARLINK-4673,PAYLOAD,2023-02-19 14:16:36,15.08842681,8.06e-05,53.2151,205.5376,90.9524,269.156,0.00022606,3.312e-05,0.0,0 STARLINK-4673,1 53589U 22104B   23050.59486789  .00003312  00000-0  22606-3 0  9993,2 53589  53.2151 205.5376 0000806  90.9524 269.1560 15.08842681 27753,6917.872,95.437,540.295,539.18,0.0
53589.0,STARLINK-4673,PAYLOAD,2023-02-19 17:27:22,15.08854563,7.5e-05,53.2159,204.9429,95.795,264.3127,0.00042155,6.43e-05,0.0,0 STARLINK-4673,1 53589U 22104B   23050.72734269  .00006430  00000-0  42155-3 0  9992,2 53589  53.2159 204.9429 0000750  95.7950 264.3127 15.08854563 26754,6917.836,95.437,540.22,539.182,0.0
53589.0,STARLINK-4673,PAYLOAD,2023-02-20 02:59:41,15.08846444,7.3e-05,53.2167,203.1592,93.3366,266.7709,0.0002103,3.061e-05,0.0,0 STARLINK-4673,1 53589U 22104B   23051.12478431  .00003061  00000-0  21030-3 0  9999,2 53589  53.2167 203.1592 0000730  93.3366 266.7709 15.08846444 26816,6917.861,95.437,540.231,539.221,0.0
53589.0,STARLINK-4673,PAYLOAD,2023-02-21 13:58:10,15.08852022,0.0001248,53.2164,196.6172,110.5278,249.5848,0.00025199,3.726e-05,0.0,0 STARLINK-4673,1 53589U 22104B   23052.58206179  .00003726  00000-0  25199-3 0  9996,2 53589  53.2164 196.6172 0001248 110.5278 249.5848 15.08852022 27039,6917.844,95.437,540.572,538.845,0.0
53589.0,STARLINK-4673,PAYLOAD,2023-02-21 20:19:42,15.08861483,9.3e-05,53.2159,195.4275,102.246,257.8636,0.00056058,8.65e-05,0.0,0 STARLINK-4673,1 53589U 22104B   23052.84701887  .00008650  00000-0  56058-3 0  9990,2 53589  53.2159 195.4275 0000930 102.2460 257.8636 15.08861483 28097,6917.815,95.436,540.323,539.036,0.0
53589.0,STARLINK-4673,PAYLOAD,2023-02-22 02:41:15,15.08837881,2.12e-05,53.2167,194.2389,59.5263,300.575,-0.00011401,-2.101e-05,0.0,0 STARLINK-4673,1 53589U 22104B   23053.11198160 -.00002101  00000-0 -11401-3 0  9995,2 53589  53.2167 194.2389 0000212  59.5263 300.5750 15.08837881 27117,6917.887,95.438,539.899,539.605,0.0
53589.0,STARLINK-4673,PAYLOAD,2023-02-22 13:48:57,15.08845343,0.0001022,53.2159,192.1571,80.1039,280.0068,0.00033847,5.104e-05,0.0,0 STARLINK-4673,1 53589U 22104B   23053.57566390  .00005104  00000-0  33847-3 0  9991,2 53589  53.2159 192.1571 0001022  80.1039 280.0068 15.08845343 28206,6917.864,95.437,540.436,539.022,0.0
53589.0,STARLINK-4673,PAYLOAD,2023-02-22 18:35:06,15.08854507,0.0001083,53.2163,191.2653,75.3885,284.7227,0.0011424,0.00017947,0.0,0 STARLINK-4673,1 53589U 22104B   23053.77438379  .00017947  00000-0  11424-2 0  9992,2 53589  53.2163 191.2653 0001083  75.3885 284.7227 15.08854507 27214,6917.836,95.437,540.45,538.952,0.0
53589.0,STARLINK-4673,PAYLOAD,2023-02-22 20:10:29,15.08857149,9.93e-05,53.2161,190.9683,69.4082,290.7016,0.0017054,0.0002697,0.0,0 STARLINK-4673,1 53589U 22104B   23053.84062330  .00026970  00000-0  17054-2 0  9991,2 53589  53.2161 190.9683 0000993  69.4082 290.7016 15.08857149 28245,6917.828,95.436,540.38,539.006,0.0
53589.0,STARLINK-4673,PAYLOAD,2023-02-23 02:32:02,15.08837472,0.0001851,53.2171,189.7779,84.7174,275.403,0.00083983,0.00013102,0.0,0 STARLINK-4673,1 53589U 22104B   23054.10559022  .00013102  00000-0  83983-3 0  9998,2 53589  53.2171 189.7779 0001851  84.7174 275.4030 15.08837472 27268,6917.888,95.438,541.034,538.473,0.0
53589.0,STARLINK-4673,PAYLOAD,2023-02-23 08:53:35,15.08847608,0.0001454,53.2161,188.5884,92.2083,267.9076,0.0014693,0.00023178,0.0,0 STARLINK-4673,1 53589U 22104B   23054.37054864  .00023178  00000-0  14693-2 0  9996,2 53589  53.2161 188.5884 0001454  92.2083 267.9076 15.08847608 28329,6917.857,95.437,540.728,538.716,0.0
